ONEWEB-0291             
1 49081U 21075G   25136.85243059  .00000039  00000+0  67654-4 0  9993
2 49081  87.9049  84.7685 0002238  85.3972 274.7415 13.17649177181419
ONEWEB-0293             
1 49082U 21075H   25136.87773858  .00000013  00000+0 -92821-7 0  9991
2 49082  87.9054  84.7941 0002060  86.5837 273.5530 13.17649740181441
ONEWEB-0294             
1 49083U 21075J   25136.74368842 -.00000022  00000+0 -97526-4 0  9996
2 49083  87.8879  69.5179 0002177  94.2961 265.8416 13.12443581182575
ONEWEB-0295             
1 49084U 21075K   25136.80094024  .00000000  00000+0 -33806-4 0  9998
2 49084  87.9069  84.7991 0002420  85.5744 274.5664 13.17649554181396
ONEWEB-0296             
1 49085U 21075L   25136.80047568  .00000428  00000+0  11551-2 0  9994
2 49085  87.8878  69.5143 0002576  89.6440 270.4984 13.12443490182582
ONEWEB-0297             
1 49086U 21075M   25136.75505062 -.00000379  00000+0 -10891-2 0  9990
2 49086  87.8888  69.5552 0002059  78.2199 281.9160 13.12441432183183
ONEWEB-0298             
1 49087U 21075N   25136.88122486 -.00000010  00000+0 -57987-4 0  9991
2 49087  87.9055  84.7912 0002196  77.5917 282.5460 13.17651421181434
ONEWEB-0299             
1 49088U 21075P   25136.88277461  .00000012  00000+0 -21225-5 0  9994
2 49088  87.9051  84.7458 0002214  78.3573 281.7806 13.17646782181411
